{
    "links": {
        "self": "http://www.neowsapp.com/rest/v1/neo/3843123?api_key=iIulBulltgU6a56xZRHN4H3l9WmuAYTsLGpBGhQ2"
    },
    "id": "3843123",
    "neo_reference_id": "3843123",
    "name": "(2019 NV1)",
    "designation": "2019 NV1",
    "nasa_jpl_url": "http://ssd.jpl.nasa.gov/sbdb.cgi?sstr=3843123",
    "absolute_magnitude_h": 23.8,
    "estimated_diameter": {
        "kilometers": {
            "estimated_diameter_min": 0.046190746,
            "estimated_diameter_max": 0.1032856481
        },
        "meters": {
            "estimated_diameter_min": 46.1907460282,
            "estimated_diameter_max": 103.2856480504
        },
        "miles": {
            "estimated_diameter_min": 0.0287015901,
            "estimated_diameter_max": 0.0641787064
        },
        "feet": {
            "estimated_diameter_min": 151.544447199,
            "estimated_diameter_max": 338.8636855496
        }
    },
    "is_potentially_hazardous_asteroid": false,
    "close_approach_data": [
        {
            "close_approach_date": "2019-06-23",
            "close_approach_date_full": "2019-Jun-23 03:35",
            "epoch_date_close_approach": 1561260900000,
            "relative_velocity": {
                "kilometers_per_second": "8.0694713722",
                "kilometers_per_hour": "29050.0969397471",
                "miles_per_hour": "18050.6005123667"
            },
            "miss_distance": {
                "astronomical": "0.097555208",
                "lunar": "37.948975912",
                "kilometers": "14594051.32420696",
                "miles": "9068322.989137648"
            },
            "orbiting_body": "Earth"
        }
    ],
    "orbital_data": {
        "orbit_id": "1",
        "orbit_determination_date": "2019-07-05 10:42:03",
        "first_observation_date": "2019-07-03",
        "last_observation_date": "2019-07-05",
        "data_arc_in_days": 2,
        "observations_used": 17,
        "orbit_uncertainty": "9",
        "minimum_orbit_intersection": ".0559337",
        "jupiter_tisserand_invariant": "3.644",
        "epoch_osculation": "2458668.5",
        "eccentricity": ".4736664374304798",
        "semi_major_axis": "2.037053796815179",
        "inclination": "8.563433024540203",
        "ascending_node_longitude": "106.3417430722978",
        "orbital_period": "1061.945367156585",
        "perihelion_distance": "1.072169782023501",
        "perihelion_argument": "175.8007227986091",
        "aphelion_distance": "3.001937811606858",
        "perihelion_time": "2458664.316956188199",
        "mean_anomaly": "1.418053902603743",
        "mean_motion": ".3390004901701478",
        "equinox": "J2000",
        "orbit_class": {
            "orbit_class_type": "AMO",
            "orbit_class_description": "Near-Earth asteroid orbits similar to that of 1221 Amor",
            "orbit_class_range": "1.017 AU < q (perihelion) < 1.3 AU"
        }
    },
    "is_sentry_object": false
}